#cP2007 10 27  0  0  0.00000000      96 ORBIT IGS05 HLM  IGS
## 1450 518400.00000000   900.00000000 54400 0.0000000000000
+   31   G01G02G03G04G05G06G07G08G09G10G11G12G13G14G15G16G17
+        G18G19G20G21G22G23G24G25G26G27G28G30G31G32  0  0  0
+          0  0  0  0  0  0  0  0  0  0  0  0  0  0  0  0  0
+          0  0  0  0  0  0  0  0  0  0  0  0  0  0  0  0  0
+          0  0  0  0  0  0  0  0  0  0  0  0  0  0  0  0  0
++         3  3  3  3  3  3  3  3  3  2  3  3  3  3  0  3  3
++         3  3  3  3  3  3  3  3  3  3  3  3  3  4  0  0  0
++         0  0  0  0  0  0  0  0  0  0  0  0  0  0  0  0  0
++         0  0  0  0  0  0  0  0  0  0  0  0  0  0  0  0  0
++         0  0  0  0  0  0  0  0  0  0  0  0  0  0  0  0  0
%c G  cc GPS ccc cccc cccc cccc cccc ccccc ccccc ccccc ccccc
%c cc cc ccc ccc cccc cccc cccc cccc ccccc ccccc ccccc ccccc
%f  1.2500000  1.025000000  0.00000000000  0.000000000000000
%f  0.0000000  0.000000000  0.00000000000  0.000000000000000
%i    0    0    0    0      0      0      0      0         0
%i    0    0    0    0      0      0      0      0         0
/* FINAL ORBIT COMBINATION FROM WEIGHTED AVERAGE OF:        
/* cod emr esa gfz jpl mit ngs sio                          
/* REFERENCED TO IGS TIME (IGST) AND TO WEIGHTED MEAN POLE: 
/* PCV:IGS05_1421 OL/AL:FES2004  NONE     Y  ORB:CMB CLK:CMB
*  2007 10 27 22 30  0.00000000
PG01  -1896.626178  14898.036640  22113.249852    162.745138  8  8  9 192       
PG02 -10895.841780 -22442.909941   9361.236144    146.817153  9  8  7 151       
PG03   9566.739051  13590.440915 -20998.850230    135.831089  9  9  7 159       
PG04    697.016395 -19259.895039  18041.588966    -18.180323  4  8  8 140       
PG05 -16095.256462   2124.727999  20738.674465    500.265039  8 10  8 159       
PG06 -25577.323569   7066.634790  -1275.288277    229.422952 11  8  9 194       
PG07 -24767.452616   8990.573902  -3167.480965    -37.654220 10  8  9 192       
PG08   8296.027585 -12939.785672 -21702.963468   -127.904759 10 11  7 144       
PG09 -20964.534782 -13731.507662   8453.229831     94.033382 11  7  9 169       
PG10  -3585.238230 -21200.643482 -15493.955182   -122.767219  9  8 11 162       
PG11  23307.281736   9149.769457   9179.729551     25.376046  6  7  9 175       
PG12 -14426.835221  -4885.956833  21849.339044   -346.313485  7  9  8 152       
PG13  25625.956909  -6159.807780  -3292.845701    216.970620 12 11  3 185       
PG14 -14099.194782  14145.480416  17553.808292   -323.950853  8  7  9 153       
PG15 -19605.931485  -7559.744696 -16198.175678 999999.999999
PG16   -470.128050  24037.246194 -11034.591294    121.883909  8  4  7 163       
PG17  15214.525388 -14436.590314  16228.517336     50.550693 10  7  6 160       
PG18 -16629.059976  14342.429400 -14519.344958   -228.899814  8 11  9 174       
PG19  19331.497066   8808.790563 -15944.925028      3.719976  8 12  6 189       
PG20  15645.516692   1183.106542  21325.592051    127.212346 11  5  7 175       
PG21 -16486.128601   3607.850525 -20479.910311     77.172596 10  7  9 163       
PG22 -11529.510600  23707.740363  -2875.127023    201.646616 10  8 10 157       
PG23  25329.346199    800.876855   8268.720624    303.928844 12  9  7 183       
PG24 -19890.754820  -7395.407831 -15597.191512     41.668276  9  6  8 183       
PG25  19031.745309    619.034914 -18090.589951    469.519290  9 11  7 143       
PG26 -16930.831079  -9700.884865 -18728.503635     76.098502 11  7 10 185       
PG27  14958.310593  -5211.241258 -20703.520630    144.010242  8 10  8 152       
PG28  12607.571940 -22306.431283  -5912.302421     -9.336159  8  9  8 119       
PG30 -16508.176219   8873.288689  18450.525318     50.424109  9  8  9 156       
PG31   2433.991252  20459.794358  16917.680855      4.545607  7  7  4 131       
PG32  -4994.411485  25061.969203   7967.321792    116.728156 16 14 18 194       
*  2007 10 27 22 45  0.00000000
PG01  -4307.738651  15287.480398  21487.514384    162.747522  8  9  9 196       
PG02  -9873.229884 -21718.667200  11803.756881    146.819471  9  8  7 148       
PG03   7320.744508  14389.204639 -21339.658114    135.836344  9  8  7 152       
PG04   2284.501452 -17765.693672  19419.009442    -18.183972  4  9  8 127       
PG05 -15646.586176   -297.095356  21191.223174    500.289030  8 10  8 157       
PG06 -25669.211594   6749.196522   1523.578254    229.416329 11  8  9 193       
PG07 -25090.172375   8747.372003   -375.419945    -37.644352 11  9  9 194       
PG08   9933.533357 -11074.179220 -22086.799077   -127.905838 10 11  8 153       
PG09 -21436.762758 -14507.733338   5749.738900     94.035739 12  7  9 173       
PG10  -2882.286251 -22696.956967 -13327.075764   -122.779686  9  8 11 159       
PG11  23817.037452  10015.570583   6689.254031     25.376499  7  7  8 171       
PG12 -13695.861568  -7245.173867  21669.213314   -346.314733  7  9  8 152       
PG13  25849.712772  -6042.546216   -378.538653    216.972978 13 11  3 156       
PG14 -15963.845041  14409.682773  15616.748063   -323.948332  8  9  9 158       
PG15 -17739.595936  -8182.720146 -17952.145280 999999.999999
PG16  -1038.298389  25041.072848  -8468.798209    121.885517  8  3  7 155       
PG17  16957.452888 -14628.297922  14187.002810     50.549501 12  7  6 176       
PG18 -16241.485395  12553.619746 -16491.944028   -228.898117  9 11  8 173       
PG19  17444.785271   9278.801447 -17730.132814      3.722008  7 12  6 186       
PG20  14980.495383   3570.184512  21538.326064    127.211580 11  5  7 177       
PG21 -17950.475544   1816.546616 -19522.439460     77.172262 10  7 10 163       
PG22 -11633.353474  23132.243292  -5651.934288    201.647188  9  9 10 163       
PG23  24304.693619   1229.838952  10844.684744    303.932010 12  9  8 187       
PG24 -20820.319180  -8843.377055 -13489.287918     41.669990  9  7  9 181       
PG25  20449.511582   2097.187748 -16372.082794    469.525470  9 11  8 153       
PG26 -14861.382112 -10140.477548 -20182.362312     76.109680 11  7 10 184       
PG27  16679.536019  -3472.837242 -19779.164469    144.012199  9 11  8 157       
PG28  12585.793950 -21384.917354  -8623.179534     -9.336648  7  9  8 124       
PG30 -16074.070918   6656.406764  19710.785745     50.425330  9  8  9 159       
PG31    960.046922  19103.680737  18594.813723      4.544236  7  7  4 141       
PG32  -5434.117093  25636.266089   5229.630858    116.741152 16 15 18 195       
*  2007 10 27 23  0  0.00000000
PG01  -6605.624145  15793.511873  20498.643000    162.750307  8 10  9 194       
PG02  -8620.424497 -20865.589130  14044.420497    146.822299  9  8  7 147       
PG03   5095.370132  15301.301854 -21321.360639    135.840943  9  7  7 143       
PG04   4039.230087 -16256.552113  20456.892810    -18.187565  5  9  8 129       
PG05 -15310.447744  -2766.541318  21270.087886    500.313059  7 10  8 155       
PG06 -25478.301037   6338.291238   4296.310534    229.409993 12  9  9 195       
PG07 -25126.968932   8414.895629   2423.123160    -37.634721 11 10 10 197       
PG08  11683.907723  -9289.556889 -22093.560488   -127.907115 11 12  9 161       
PG09 -21716.298390 -15045.738805   2946.721705     94.037574 12  7  9 179       
PG10  -2324.231462 -23979.034283 -10928.715830   -122.791572  9  7 11 165       
PG11  24126.661370  10700.516201   4085.290660     25.376646  7  7  9 171       
PG12 -13099.700113  -9599.069613  21119.512435   -346.315834  8  9  7 153       
PG13  25758.645352  -5855.744965   2542.283029    216.975497 13 10  3 159       
PG14 -17585.064229  14717.185644  13411.469777   -323.946184  8 10 10 165       
PG15 -15734.586369  -8953.903643 -19396.198561 999999.999999
PG16  -1478.144118  25782.199046  -5755.499699    121.887341  8  3  8 149       
PG17  18452.836267 -14842.301480  11899.973632     50.548213 13  7  7 186       
PG18 -15886.003326  10548.008254 -18173.315238   -228.896054 10 11  8 175       
PG19  15402.997569   9886.822650 -19209.790842      3.723866  5 12  6 184       
PG20  14435.359559   5990.081684  21376.989593    127.210958 11  5  7 175       
PG21 -19407.978721    193.829349 -18229.872292     77.171493 10  8 11 164       
PG22 -11680.278086  22264.943604  -8330.812971    201.648534  9 10 10 166       
PG23  23034.941651   1793.886492  13235.722200    303.935168 13  8  8 168       
PG24 -21646.518449 -10057.729541 -11143.309032     41.672222  9  7  9 179       
PG25  21772.149602   3366.970153 -14362.729630    469.531567 10 11  8 153       
PG26 -12681.255699 -10737.352832 -21306.947034     76.121021 12  8 11 186       
PG27  18386.793376  -1911.658725 -18496.392578    144.015291  9 11  9 163       
PG28  12534.429545 -20169.753236 -11180.650644     -9.337269  8 10  7 116       
PG30 -15724.277587   4298.412903  20621.363427     50.426139  9  8  9 161       
PG31   -706.742627  17711.308648  19956.134540      4.542915  8  8  4 148       
PG32  -5747.734914  25936.568955   2403.598936    116.753899 17 16 18 195       
EOF
